{
    "links": {
        "self": "http://www.neowsapp.com/rest/v1/neo/3764861?api_key=iIulBulltgU6a56xZRHN4H3l9WmuAYTsLGpBGhQ2"
    },
    "id": "3764861",
    "neo_reference_id": "3764861",
    "name": "(2016 WU9)",
    "designation": "2016 WU9",
    "nasa_jpl_url": "http://ssd.jpl.nasa.gov/sbdb.cgi?sstr=3764861",
    "absolute_magnitude_h": 25.1,
    "estimated_diameter": {
        "kilometers": {
            "estimated_diameter_min": 0.0253837029,
            "estimated_diameter_max": 0.0567596853
        },
        "meters": {
            "estimated_diameter_min": 25.3837029364,
            "estimated_diameter_max": 56.7596852866
        },
        "miles": {
            "estimated_diameter_min": 0.0157726969,
            "estimated_diameter_max": 0.0352688224
        },
        "feet": {
            "estimated_diameter_min": 83.279867942,
            "estimated_diameter_max": 186.2194458756
        }
    },
    "is_potentially_hazardous_asteroid": false,
    "close_approach_data": [
        {
            "close_approach_date": "2016-12-03",
            "close_approach_date_full": "2016-Dec-03 05:45",
            "epoch_date_close_approach": 1480743900000,
            "relative_velocity": {
                "kilometers_per_second": "17.0353355648",
                "kilometers_per_hour": "61327.208033374",
                "miles_per_hour": "38106.3421249595"
            },
            "miss_distance": {
                "astronomical": "0.0475077302",
                "lunar": "18.4805070478",
                "kilometers": "7107055.246454674",
                "miles": "4416119.3519715412"
            },
            "orbiting_body": "Earth"
        }
    ],
    "orbital_data": {
        "orbit_id": "4",
        "orbit_determination_date": "2018-02-10 07:08:35",
        "first_observation_date": "2016-11-23",
        "last_observation_date": "2016-12-01",
        "data_arc_in_days": 8,
        "observations_used": 18,
        "orbit_uncertainty": "8",
        "minimum_orbit_intersection": ".0396137",
        "jupiter_tisserand_invariant": "2.530",
        "epoch_osculation": "2457718.5",
        "eccentricity": ".7568449203435856",
        "semi_major_axis": "3.525042640506639",
        "inclination": "11.73144421149779",
        "ascending_node_longitude": "243.810909670218",
        "orbital_period": "2417.380358217245",
        "perihelion_distance": ".8571320240446491",
        "perihelion_argument": "238.6432267314128",
        "aphelion_distance": "6.19295325696863",
        "perihelion_time": "2457759.448382548835",
        "mean_anomaly": "353.9019039070657",
        "mean_motion": ".1489215376373334",
        "equinox": "J2000",
        "orbit_class": {
            "orbit_class_type": "APO",
            "orbit_class_description": "Near-Earth asteroid orbits which cross the Earth’s orbit similar to that of 1862 Apollo",
            "orbit_class_range": "a (semi-major axis) > 1.0 AU; q (perihelion) < 1.017 AU"
        }
    },
    "is_sentry_object": false
}